     2.10           G: GLONASS NAV DATA                     RINEX VERSION / TYPE
teqc  2015Jun23                         20160821 00:26:53UTCPGM / RUN BY / DATE
Solaris x86 5.10|AMD64|cc SC5.8 -xarch=amd64|=+|=+          COMMENT
     2.10           G: GLONASS NAV DATA                     COMMENT
teqc  2016Apr1                          20160821 00:10:32UTCCOMMENT
                                                            END OF HEADER
13 16  8 20 16 45  0.0 6.200745701790D-06-0.000000000000D+00 5.940000000000D+04
   -1.065826513672D+04 1.994333267212D-01 0.000000000000D+00 0.000000000000D+00
   -6.602280273438D+02-3.170026779175D+00 9.313225746155D-10-2.000000000000D+00
    2.314969921875D+04 4.863739013672D-05-2.793967723846D-09 0.000000000000D+00
23 16  8 20 17 15  0.0-1.471834257245D-04-3.637978807092D-12 6.120000000000D+04
   -1.692764208984D+04 1.406970977783D+00 2.793967723846D-09 1.000000000000D+00
   -1.473955322266D+04 9.005317687988D-01 0.000000000000D+00 3.000000000000D+00
    1.210608789062D+04 3.059953689575D+00-9.313225746155D-10 0.000000000000D+00
13 16  8 20 17 15  0.0 6.198883056641D-06-0.000000000000D+00 6.120000000000D+04
   -1.072241943359D+04-2.647485733032D-01 9.313225746155D-10 0.000000000000D+00
   -6.298594238281D+03-3.042690277100D+00 0.000000000000D+00-2.000000000000D+00
    2.225349218750D+04-9.893951416016D-01-2.793967723846D-09 0.000000000000D+00
23 16  8 20 17 45  0.0-1.471908763051D-04-3.637978807092D-12 6.300000000000D+04
   -1.369341699219D+04 2.168306350708D+00 1.862645149231D-09 1.000000000000D+00
   -1.308284619141D+04 8.975372314453D-01-9.313225746155D-10 3.000000000000D+00
    1.707436328125D+04 2.424448013306D+00-1.862645149231D-09 0.000000000000D+00
13 16  8 20 17 45  0.0 6.197951734066D-06-0.000000000000D+00 6.300000000000D+04
   -1.155774218750D+04-6.401033401489D-01 1.862645149231D-09 0.000000000000D+00
   -1.143557421875D+04-2.619644165039D+00-9.313225746155D-10-2.000000000000D+00
    1.963387207031D+04-1.902379989624D+00-1.862645149231D-09 0.000000000000D+00
14 16  8 20 18 15  0.0 3.629615530372D-04 4.547473508865D-12 6.480000000000D+04
   -1.009556054688D+04-9.987249374390D-01 0.000000000000D+00 0.000000000000D+00
    2.980662109375D+03-3.027305603027D+00 0.000000000000D+00-7.000000000000D+00
    2.321621386719D+04-5.326557159424D-02-2.793967723846D-09 0.000000000000D+00
13 16  8 20 18 15  0.0 6.197020411491D-06-0.000000000000D+00 6.480000000000D+04
   -1.291720800781D+04-8.339004516602D-01 2.793967723846D-09 0.000000000000D+00
   -1.558801074219D+04-1.962273597717D+00-1.862645149231D-09-2.000000000000D+00
    1.549352734375D+04-2.668077468872D+00-9.313225746155D-10 0.000000000000D+00
14 16  8 20 18 45  0.0 3.629745915532D-04 4.547473508865D-12 6.660000000000D+04
   -1.226316015625D+04-1.383989334106D+00 9.313225746155D-10 0.000000000000D+00
   -2.235561523438D+03-2.722177505493D+00-0.000000000000D+00-7.000000000000D+00
    2.222205322266D+04-1.044398307800D+00-2.793967723846D-09 0.000000000000D+00
13 16  8 20 18 45  0.0 6.196089088917D-06-0.000000000000D+00 6.660000000000D+04
   -1.441343750000D+04-7.852363586426D-01 1.862645149231D-09 0.000000000000D+00
   -1.841637304688D+04-1.166571617126D+00-3.725290298462D-09-2.000000000000D+00
    1.015313623047D+04-3.227081298828D+00-0.000000000000D+00 0.000000000000D+00
24 16  8 20 19 15  0.0-1.399479806423D-04-0.000000000000D+00 6.840000000000D+04
   -1.557043017578D+04 2.565898895264D+00 9.313225746155D-10 0.000000000000D+00
   -7.684362792969D+03-3.301715850830D-02-1.862645149231D-09 2.000000000000D+00
    1.865166699219D+04 2.125579833984D+00-1.862645149231D-09 0.000000000000D+00
14 16  8 20 19 15  0.0 3.629829734564D-04 4.547473508865D-12 6.840000000000D+04
   -1.495885009766D+04-1.571886062622D+00 1.862645149231D-09 0.000000000000D+00
   -6.673570800781D+03-2.175588607788D+00-1.862645149231D-09-7.000000000000D+00
    1.950435839844D+04-1.955760002136D+00-1.862645149231D-09 0.000000000000D+00
13 16  8 20 19 15  0.0 6.195157766342D-06-0.000000000000D+00 6.840000000000D+04
   -1.558666552734D+04-4.758214950562D-01 1.862645149231D-09 0.000000000000D+00
   -1.977361474609D+04-3.474521636963D-01-4.656612873077D-09-2.000000000000D+00
    4.026432128906D+03-3.536081314087D+00 0.000000000000D+00 0.000000000000D+00
15 16  8 20 19 15  0.0 7.613655179739D-05 9.094947017729D-13 6.867000000000D+04
   -7.934050292969D+03-1.735949516296D+00 0.000000000000D+00 0.000000000000D+00
    7.068964843750D+03-2.661505699158D+00 9.313225746155D-10 0.000000000000D+00
    2.319534716797D+04 2.256107330322D-01-2.793967723846D-09 0.000000000000D+00
14 16  8 20 19 45  0.0 3.629913553596D-04 3.637978807092D-12 7.020000000000D+04
   -1.776485107422D+04-1.499424934387D+00 9.313225746155D-10 0.000000000000D+00
   -9.978388183594D+03-1.480865478516D+00-2.793967723846D-09-7.000000000000D+00
    1.527214990234D+04-2.716119766235D+00-9.313225746155D-10 0.000000000000D+00
15 16  8 20 19 45  0.0 7.613841444254D-05 9.094947017729D-13 7.020000000000D+04
   -1.139208349609D+04-2.071897506714D+00 9.313225746155D-10 0.000000000000D+00
    2.552181152344D+03-2.317009925842D+00-0.000000000000D+00 0.000000000000D+00
    2.270074365234D+04-7.713527679443D-01-2.793967723846D-09 0.000000000000D+00
24 16  8 20 19 45  0.0-1.399498432875D-04-0.000000000000D+00 7.020000000000D+04
   -1.056996630859D+04 2.941601753235D+00 0.000000000000D+00 0.000000000000D+00
   -8.149085937500D+03-4.971971511841D-01-2.793967723846D-09 2.000000000000D+00
    2.170492871094D+04 1.244804382324D+00-1.862645149231D-09 0.000000000000D+00
17 16  8 20 21 15  0.0-2.864003181458D-05 0.000000000000D+00 7.560000000000D+04
   -1.225478076172D+04 2.544981956482D+00-0.000000000000D+00 0.000000000000D+00
   -4.277611816406D+03-1.603478431702D+00-2.793967723846D-09 4.000000000000D+00
    2.196655371094D+04 1.104203224182D+00-1.862645149231D-09 0.000000000000D+00
17 16  8 20 21 45  0.0-2.864003181458D-05-0.000000000000D+00 7.740000000000D+04
   -7.766685058594D+03 2.396559715271D+00-1.862645149231D-09 0.000000000000D+00
   -7.598033691406D+03-2.060691833496D+00-2.793967723846D-09 4.000000000000D+00
    2.307991699219D+04 1.247434616089D-01-1.862645149231D-09 0.000000000000D+00
 3 16  8 20 22 15  0.0 7.767695933580D-05 9.094947017729D-13 7.959000000000D+04
   -1.101195507812D+04-4.479665756226D-01-3.725290298462D-09 0.000000000000D+00
   -2.200238134766D+04-8.298044204712D-01-3.725290298462D-09 5.000000000000D+00
   -6.755363769531D+03 3.408176422119D+00 9.313225746155D-10 0.000000000000D+00
18 16  8 20 22 45  0.0 1.150500029325D-04 9.094947017729D-13 8.100000000000D+04
   -1.181002490234D+04 1.758394241333D+00-1.862645149231D-09 0.000000000000D+00
   -1.187088867188D+03-2.544245719910D+00-1.862645149231D-09-3.000000000000D+00
    2.257516113281D+04 7.920227050781D-01-1.862645149231D-09 0.000000000000D+00
 3 16  8 20 22 45  0.0 7.767882198095D-05 9.094947017729D-13 8.100000000000D+04
   -1.160682226562D+04-1.727876663208D-01-4.656612873077D-09 0.000000000000D+00
   -2.273041845703D+04 1.267147064209D-02-2.793967723846D-09 5.000000000000D+00
   -4.389243164062D+02 3.564540863037D+00 0.000000000000D+00 0.000000000000D+00
18 16  8 20 23 15  0.0 1.150527969003D-04 9.094947017729D-13 8.280000000000D+04
   -8.947448730469D+03 1.393047332764D+00-2.793967723846D-09 0.000000000000D+00
   -6.073066406250D+03-2.841162681580D+00-9.313225746155D-10-3.000000000000D+00
    2.310988720703D+04-2.015514373779D-01-1.862645149231D-09 0.000000000000D+00
 3 16  8 20 23 15  0.0 7.768161594868D-05 9.094947017729D-13 8.280000000000D+04
   -1.150200781250D+04 3.209962844849D-01-4.656612873077D-09 0.000000000000D+00
   -2.201925830078D+04 7.516555786133D-01-1.862645149231D-09 5.000000000000D+00
    5.911491699219D+03 3.445797920227D+00-0.000000000000D+00 0.000000000000D+00
 3 16  8 20 23 45  0.0 7.768347859383D-05 9.094947017729D-13 8.460000000000D+04
   -1.036109423828D+04 9.640340805054D-01-4.656612873077D-09 0.000000000000D+00
   -2.014305029297D+04 1.294148445129D+00-9.313225746155D-10 5.000000000000D+00
    1.180633740234D+04 3.061717033386D+00-9.313225746155D-10 0.000000000000D+00
17 16  8 20  2 45  0.0-2.863351255655D-05-0.000000000000D+00 1.029000000000D+04
   -6.612460449219D+03 3.222560882568D-01 1.862645149231D-09 0.000000000000D+00
   -2.322305371094D+04 1.085377693176D+00 1.862645149231D-09 4.000000000000D+00
   -8.166252441406D+03-3.350027084351D+00 0.000000000000D+00 0.000000000000D+00
16 16  8 20  6 15  0.0 4.138052463531D-05 0.000000000000D+00 2.163000000000D+04
   -1.079842968750D+04-4.638099670410D-01 2.793967723846D-09 0.000000000000D+00
   -2.192602978516D+04-8.769769668579D-01-3.725290298462D-09-1.000000000000D+00
   -7.146335449219D+03 3.409171104431D+00-0.000000000000D+00 0.000000000000D+00
 6 16  8 20 10 45  0.0 9.466800838709D-05 0.000000000000D+00 3.915000000000D+04
   -7.776345214844D+03 3.242254257202D-01-5.587935447693D-09 0.000000000000D+00
   -2.320207421875D+04 9.324827194214D-01-1.862645149231D-09-4.000000000000D+00
   -7.152090332031D+03-3.383157730103D+00 0.000000000000D+00 0.000000000000D+00
17 16  8 20  0 15  0.0-2.863164991140D-05-0.000000000000D+00 0.000000000000D+00
   -6.250742187500D+03 5.036630630493D-01-2.793967723846D-09 0.000000000000D+00
   -1.473666503906D+04-2.674092292786D+00 9.313225746155D-10 4.000000000000D+00
    1.984835058594D+04-1.830124855042D+00-1.862645149231D-09 0.000000000000D+00
 3 16  8 20  2 45  0.0 7.761456072330D-05 9.094947017729D-13 9.030000000000D+03
   -3.888862304688D+03 3.079664230347D+00-0.000000000000D+00 0.000000000000D+00
   -1.113635205078D+04 2.608528137207D-01 9.313225746155D-10 5.000000000000D+00
    2.266303759766D+04 6.546716690063D-01-2.793967723846D-09 0.000000000000D+00
